EUTELSAT QUANTUM        
1 49056U 21069B   25310.86947613  .00000134  00000+0  00000+0 0  9993
2 49056   0.0445  71.5931 0003141 173.3204 162.1497  1.00270322 15692
EUTELSAT KONNECT VHTS   
1 53765U 22110A   25310.89084122  .00000025  00000+0  00000+0 0  9992
2 53765   0.0582  93.2270 0002744 117.5288 159.0086  1.00269718  4596
EUTELSAT HOTBIRD 13F    
1 54048U 22134A   25310.92243288  .00000095  00000+0  00000+0 0  9994
2 54048   0.0523 286.0143 0002123  67.4619  37.9914  1.00270791 11145
EUTELSAT HOTBIRD 13G    
1 54225U 22146A   25310.92243289  .00000095  00000+0  00000+0 0  9995
2 54225   0.0442 239.7425 0001807 308.9436 202.7749  1.00271584  5230
EUTELSAT 10B            
1 54259U 22157A   25310.89231456  .00000076  00000+0  00000+0 0  9992
2 54259   0.0591  91.0722 0001284  71.7260 214.8053  1.00267957 10798
EUTELSAT 36D            
1 59346U 24059A   25310.89742792  .00000163  00000+0  00000+0 0  9994
2 59346   0.0159 281.7382 0000379   5.8407 117.7426  1.00270319  5914
